start=new Date('2023-05-02T00:00:00.000Z').valueOf();
sats=[{"RCS_SIZE":"LARGE","DECAY_DATE":null,"BSTAR":"0.00002503400000","ARG_OF_PERICENTER":"98.3687","REV_AT_EPOCH":"3760","MEAN_MOTION_DDOT":"0.0000000000000","COUNTRY_CODE":"US","MEAN_MOTION":"15.08840373","REF_FRAME":"TEME","OBJECT_NAME":"STARLINK-4604","MEAN_ELEMENT_THEORY":"SGP4","TIME_SYSTEM":"UTC","LAUNCH_DATE":"2022-08-28","SITE":"AFETR","TLE_LINE2":"2 53618  53.2156 236.0934 0001110  98.3687 261.7431 15.08840373 37607","ELEMENT_SET_NO":"999","INCLINATION":"53.2156","OBJECT_ID":"2022-104AG","FILE":"3898518","SEMIMAJOR_AXIS":"6917.879","MEAN_MOTION_DOT":"0.00000111","EPHEMERIS_TYPE":"0","PERIOD":"95.438","RA_OF_ASC_NODE":"236.0934","TLE_LINE1":"1 53618U 22104AG  23121.72289011  .00000111  00000-0  25034-4 0  9992","CENTER_NAME":"EARTH","ECCENTRICITY":"0.00011100","GP_ID":"231053733","CLASSIFICATION_TYPE":"U","EPOCH":"2023-05-01T17:20:57.705504","APOAPSIS":"540.512","PERIAPSIS":"538.976","NORAD_CAT_ID":"53618","OBJECT_TYPE":"PAYLOAD","MEAN_ANOMALY":"261.7431"},{"CLASSIFICATION_TYPE":"U","ECCENTRICITY":"0.00008560","GP_ID":"231054985","CENTER_NAME":"EARTH","PERIAPSIS":"539.156","NORAD_CAT_ID":"53619","OBJECT_TYPE":"PAYLOAD","MEAN_ANOMALY":"266.2712","APOAPSIS":"540.340","EPOCH":"2023-05-01T17:31:34.391424","EPHEMERIS_TYPE":"0","FILE":"3898518","MEAN_MOTION_DOT":"0.00001553","SEMIMAJOR_AXIS":"6917.883","OBJECT_ID":"2022-104AH","INCLINATION":"53.2160","TLE_LINE1":"1 53619U 22104AH  23121.73025916  .00001553  00000-0  11565-3 0  9990","RA_OF_ASC_NODE":"236.1402","PERIOD":"95.438","OBJECT_NAME":"STARLINK-4609","MEAN_ELEMENT_THEORY":"SGP4","ELEMENT_SET_NO":"999","TLE_LINE2":"2 53619  53.2160 236.1402 0000856  93.8378 266.2712 15.08839089 38185","LAUNCH_DATE":"2022-08-28","SITE":"AFETR","TIME_SYSTEM":"UTC","REV_AT_EPOCH":"3818","RCS_SIZE":"LARGE","DECAY_DATE":null,"BSTAR":"0.00011565000000","ARG_OF_PERICENTER":"93.8378","MEAN_MOTION":"15.08839089","REF_FRAME":"TEME","COUNTRY_CODE":"US","MEAN_MOTION_DDOT":"0.0000000000000"},{"CLASSIFICATION_TYPE":"U","ECCENTRICITY":"0.00006590","GP_ID":"231054726","CENTER_NAME":"EARTH","PERIAPSIS":"539.279","OBJECT_TYPE":"PAYLOAD","MEAN_ANOMALY":"265.5840","NORAD_CAT_ID":"53620","APOAPSIS":"540.190","EPOCH":"2023-05-01T17:10:20.743968","EPHEMERIS_TYPE":"0","OBJECT_ID":"2022-104AJ","FILE":"3898518","SEMIMAJOR_AXIS":"6917.870","MEAN_MOTION_DOT":"0.00001190","INCLINATION":"53.2152","TLE_LINE1":"1 53620U 22104AJ  23121.71551787  .00001190  00000-0  92810-4 0  9990","RA_OF_ASC_NODE":"236.0505","PERIOD":"95.437","OBJECT_NAME":"STARLINK-4615","MEAN_ELEMENT_THEORY":"SGP4","ELEMENT_SET_NO":"999","TLE_LINE2":"2 53620  53.2152 236.0505 0000659  94.5228 265.5840 15.08843550 38298","LAUNCH_DATE":"2022-08-28","SITE":"AFETR","TIME_SYSTEM":"UTC","REV_AT_EPOCH":"3829","DECAY_DATE":null,"BSTAR":"0.00009281000000","RCS_SIZE":"MEDIUM","ARG_OF_PERICENTER":"94.5228","MEAN_MOTION":"15.08843550","REF_FRAME":"TEME","COUNTRY_CODE":"US","MEAN_MOTION_DDOT":"0.0000000000000"},{"PERIOD":"95.438","RA_OF_ASC_NODE":"236.1178","TLE_LINE1":"1 53621U 22104AK  23121.72657525  .00011278  00000-0  72555-3 0  9990","INCLINATION":"53.2146","MEAN_MOTION_DOT":"0.00011278","FILE":"3898518","SEMIMAJOR_AXIS":"6917.878","OBJECT_ID":"2022-104AK","EPHEMERIS_TYPE":"0","EPOCH":"2023-05-01T17:26:16.101600","APOAPSIS":"540.227","OBJECT_TYPE":"PAYLOAD","NORAD_CAT_ID":"53621","MEAN_ANOMALY":"267.3945","PERIAPSIS":"539.259","CENTER_NAME":"EARTH","GP_ID":"231053484","ECCENTRICITY":"0.00007000","CLASSIFICATION_TYPE":"U","MEAN_MOTION_DDOT":"0.0000000000000","COUNTRY_CODE":"US","REF_FRAME":"TEME","MEAN_MOTION":"15.08840713","RCS_SIZE":"LARGE","DECAY_DATE":null,"BSTAR":"0.00072555000000","ARG_OF_PERICENTER":"92.7128","REV_AT_EPOCH":"3818","TIME_SYSTEM":"UTC","SITE":"AFETR","LAUNCH_DATE":"2022-08-28","TLE_LINE2":"2 53621  53.2146 236.1178 0000700  92.7128 267.3945 15.08840713 38187","ELEMENT_SET_NO":"999","MEAN_ELEMENT_THEORY":"SGP4","OBJECT_NAME":"STARLINK-4608"},{"INCLINATION":"53.2145","FILE":"3898518","SEMIMAJOR_AXIS":"6917.869","MEAN_MOTION_DOT":"0.00011038","OBJECT_ID":"2022-104AL","EPHEMERIS_TYPE":"0","PERIOD":"95.437","RA_OF_ASC_NODE":"236.0095","TLE_LINE1":"1 53622U 22104AL  23121.70910819  .00011038  00000-0  71046-3 0  9995","CENTER_NAME":"EARTH","ECCENTRICITY":"0.00006410","GP_ID":"231054234","CLASSIFICATION_TYPE":"U","EPOCH":"2023-05-01T17:01:06.947616","APOAPSIS":"540.178","PERIAPSIS":"539.291","OBJECT_TYPE":"PAYLOAD","MEAN_ANOMALY":"266.0425","NORAD_CAT_ID":"53622","DECAY_DATE":null,"RCS_SIZE":"LARGE","BSTAR":"0.00071046000000","ARG_OF_PERICENTER":"94.0640","REV_AT_EPOCH":"3829","MEAN_MOTION_DDOT":"0.0000000000000","COUNTRY_CODE":"US","MEAN_MOTION":"15.08843658","REF_FRAME":"TEME","OBJECT_NAME":"STARLINK-4568","MEAN_ELEMENT_THEORY":"SGP4","TIME_SYSTEM":"UTC","LAUNCH_DATE":"2022-08-28","SITE":"AFETR","TLE_LINE2":"2 53622  53.2145 236.0095 0000641  94.0640 266.0425 15.08843658 38294","ELEMENT_SET_NO":"999"},{"OBJECT_NAME":"STARLINK-4573","MEAN_ELEMENT_THEORY":"SGP4","ELEMENT_SET_NO":"999","TLE_LINE2":"2 53623  53.2164 235.7745 0000788 101.6752 258.4328 15.08845586 38306","SITE":"AFETR","LAUNCH_DATE":"2022-08-28","TIME_SYSTEM":"UTC","REV_AT_EPOCH":"3830","ARG_OF_PERICENTER":"101.6752","DECAY_DATE":null,"RCS_SIZE":"LARGE","BSTAR":"0.00000389980000","MEAN_MOTION":"15.08845586","REF_FRAME":"TEME","COUNTRY_CODE":"US","MEAN_MOTION_DDOT":"0.0000000000000","CLASSIFICATION_TYPE":"U","ECCENTRICITY":"0.00007880","GP_ID":"231054485","CENTER_NAME":"EARTH","PERIAPSIS":"539.183","MEAN_ANOMALY":"258.4328","OBJECT_TYPE":"PAYLOAD","NORAD_CAT_ID":"53623","APOAPSIS":"540.273","EPOCH":"2023-05-01T18:51:02.029824","EPHEMERIS_TYPE":"0","OBJECT_ID":"2022-104AM","FILE":"3898518","SEMIMAJOR_AXIS":"6917.863","MEAN_MOTION_DOT":"-0.00000226","INCLINATION":"53.2164","TLE_LINE1":"1 53623U 22104AM  23121.78544016 -.00000226  00000-0  38998-5 0  9995","RA_OF_ASC_NODE":"235.7745","PERIOD":"95.437"},{"GP_ID":"231055227","ECCENTRICITY":"0.00010030","CENTER_NAME":"EARTH","CLASSIFICATION_TYPE":"U","APOAPSIS":"540.424","EPOCH":"2023-05-01T16:59:44.003616","OBJECT_TYPE":"PAYLOAD","NORAD_CAT_ID":"53624","MEAN_ANOMALY":"269.6796","PERIAPSIS":"539.036","SEMIMAJOR_AXIS":"6917.865","FILE":"3898518","MEAN_MOTION_DOT":"0.00000107","OBJECT_ID":"2022-104AN","INCLINATION":"53.2159","EPHEMERIS_TYPE":"0","RA_OF_ASC_NODE":"236.0040","PERIOD":"95.437","TLE_LINE1":"1 53624U 22104AN  23121.70814819  .00000107  00000-0  24772-4 0  9990","MEAN_ELEMENT_THEORY":"SGP4","OBJECT_NAME":"STARLINK-4596","SITE":"AFETR","LAUNCH_DATE":"2022-08-28","TIME_SYSTEM":"UTC","ELEMENT_SET_NO":"999","TLE_LINE2":"2 53624  53.2159 236.0040 0001003  90.4311 269.6796 15.08844961 38297","DECAY_DATE":null,"BSTAR":"0.00002477200000","RCS_SIZE":"LARGE","ARG_OF_PERICENTER":"90.4311","REV_AT_EPOCH":"3829","COUNTRY_CODE":"US","MEAN_MOTION_DDOT":"0.0000000000000","REF_FRAME":"TEME","MEAN_MOTION":"15.08844961"},{"TIME_SYSTEM":"UTC","LAUNCH_DATE":"2022-08-28","SITE":"AFETR","TLE_LINE2":"2 53625  53.2148 236.0268 0001031 114.5613 245.5486 15.08844944 38292","ELEMENT_SET_NO":"999","OBJECT_NAME":"STARLINK-4603","MEAN_ELEMENT_THEORY":"SGP4","MEAN_MOTION_DDOT":"0.0000000000000","COUNTRY_CODE":"US","MEAN_MOTION":"15.08844944","REF_FRAME":"TEME","DECAY_DATE":null,"RCS_SIZE":"LARGE","ARG_OF_PERICENTER":"114.5613","BSTAR":"0.00033735000000","REV_AT_EPOCH":"3829","EPOCH":"2023-05-01T17:05:02.522400","APOAPSIS":"540.444","PERIAPSIS":"539.017","OBJECT_TYPE":"PAYLOAD","MEAN_ANOMALY":"245.5486","NORAD_CAT_ID":"53625","CENTER_NAME":"EARTH","ECCENTRICITY":"0.00010310","GP_ID":"231053984","CLASSIFICATION_TYPE":"U","PERIOD":"95.437","RA_OF_ASC_NODE":"236.0268","TLE_LINE1":"1 53625U 22104AP  23121.71183475  .00005086  00000-0  33735-3 0  9998","INCLINATION":"53.2148","MEAN_MOTION_DOT":"0.00005086","FILE":"3898518","SEMIMAJOR_AXIS":"6917.865","OBJECT_ID":"2022-104AP","EPHEMERIS_TYPE":"0"},{"CLASSIFICATION_TYPE":"U","ECCENTRICITY":"0.00010560","GP_ID":"231053734","CENTER_NAME":"EARTH","PERIAPSIS":"539.026","MEAN_ANOMALY":"284.6044","OBJECT_TYPE":"PAYLOAD","NORAD_CAT_ID":"53626","APOAPSIS":"540.487","EPOCH":"2023-05-01T15:08:26.169216","EPHEMERIS_TYPE":"0","FILE":"3898518","SEMIMAJOR_AXIS":"6917.892","OBJECT_ID":"2022-104AQ","MEAN_MOTION_DOT":"-0.00000465","INCLINATION":"53.2166","TLE_LINE1":"1 53626U 22104AQ  23121.63085844 -.00000465  00000-0 -11151-4 0  9998","RA_OF_ASC_NODE":"236.2330","PERIOD":"95.438","OBJECT_NAME":"STARLINK-4554","MEAN_ELEMENT_THEORY":"SGP4","ELEMENT_SET_NO":"999","TLE_LINE2":"2 53626  53.2166 236.2330 0001056  75.5065 284.6044 15.08836249 38292","SITE":"AFETR","LAUNCH_DATE":"2022-08-28","TIME_SYSTEM":"UTC","REV_AT_EPOCH":"3829","ARG_OF_PERICENTER":"75.5065","DECAY_DATE":null,"RCS_SIZE":"LARGE","BSTAR":"-0.00001115100000","MEAN_MOTION":"15.08836249","REF_FRAME":"TEME","COUNTRY_CODE":"US","MEAN_MOTION_DDOT":"0.0000000000000"},{"MEAN_ELEMENT_THEORY":"SGP4","OBJECT_NAME":"STARLINK-4595","TLE_LINE2":"2 53627  53.2164 236.2797 0001160  83.1812 276.9312 15.08837108 38296","ELEMENT_SET_NO":"999","TIME_SYSTEM":"UTC","SITE":"AFETR","LAUNCH_DATE":"2022-08-28","REV_AT_EPOCH":"3829","BSTAR":"-0.00001712000000","DECAY_DATE":null,"RCS_SIZE":"LARGE","ARG_OF_PERICENTER":"83.1812","REF_FRAME":"TEME","MEAN_MOTION":"15.08837108","MEAN_MOTION_DDOT":"0.0000000000000","COUNTRY_CODE":"US","CLASSIFICATION_TYPE":"U","CENTER_NAME":"EARTH","GP_ID":"231054986","ECCENTRICITY":"0.00011600","NORAD_CAT_ID":"53627","OBJECT_TYPE":"PAYLOAD","MEAN_ANOMALY":"276.9312","PERIAPSIS":"538.952","EPOCH":"2023-05-01T15:19:03.055584","APOAPSIS":"540.557","EPHEMERIS_TYPE":"0","INCLINATION":"53.2164","SEMIMAJOR_AXIS":"6917.889","FILE":"3898518","MEAN_MOTION_DOT":"-0.00000560","OBJECT_ID":"2022-104AR","TLE_LINE1":"1 53627U 22104AR  23121.63822981 -.00000560  00000-0 -17120-4 0  9998","PERIOD":"95.438","RA_OF_ASC_NODE":"236.2797"}];
